[{"OBJECT_NAME":"OBJECT E","OBJECT_ID":"2024-092E","EPOCH":"2026-03-09T21:25:47.709120","MEAN_MOTION":15.32997986,"ECCENTRICITY":0.0008531,"INCLINATION":97.642,"RA_OF_ASC_NODE":198.2099,"ARG_OF_PERICENTER":142.2606,"MEAN_ANOMALY":217.9236,"EPHEMERIS_TYPE":0,"CLASSIFICATION_TYPE":"U","NORAD_CAT_ID":59777,"ELEMENT_SET_NO":999,"REV_AT_EPOCH":10051,"BSTAR":0.00078641119,"MEAN_MOTION_DOT":0.00025066,"MEAN_MOTION_DDOT":0},{"OBJECT_NAME":"STARLINK-34764","OBJECT_ID":"2025-167W","EPOCH":"2026-03-09T06:07:12.575424","MEAN_MOTION":15.30188955,"ECCENTRICITY":0.00010693,"INCLINATION":53.1607,"RA_OF_ASC_NODE":28.6505,"ARG_OF_PERICENTER":83.1773,"MEAN_ANOMALY":276.9349,"EPHEMERIS_TYPE":0,"CLASSIFICATION_TYPE":"U","NORAD_CAT_ID":65098,"ELEMENT_SET_NO":999,"REV_AT_EPOCH":3341,"BSTAR":0.00072527932,"MEAN_MOTION_DOT":0.00021175,"MEAN_MOTION_DDOT":0}]
